[{"OBJECT_NAME":"STARLINK-3890","OBJECT_ID":"2022-049E","EPOCH":"2026-01-01T08:03:24.075648","MEAN_MOTION":15.08838379,"ECCENTRICITY":0.00013491,"INCLINATION":53.2194,"RA_OF_ASC_NODE":11.4852,"ARG_OF_PERICENTER":81.7005,"MEAN_ANOMALY":278.414,"EPHEMERIS_TYPE":0,"CLASSIFICATION_TYPE":"U","NORAD_CAT_ID":52455,"ELEMENT_SET_NO":999,"REV_AT_EPOCH":20194,"BSTAR":9.2779854e-5,"MEAN_MOTION_DOT":1.189e-5,"MEAN_MOTION_DDOT":0},{"OBJECT_NAME":"STARLINK-3896","OBJECT_ID":"2022-049F","EPOCH":"2026-01-01T09:33:28.995264","MEAN_MOTION":15.08834038,"ECCENTRICITY":0.00013019,"INCLINATION":53.2183,"RA_OF_ASC_NODE":11.2049,"ARG_OF_PERICENTER":99.5178,"MEAN_ANOMALY":260.5961,"EPHEMERIS_TYPE":0,"CLASSIFICATION_TYPE":"U","NORAD_CAT_ID":52456,"ELEMENT_SET_NO":999,"REV_AT_EPOCH":20195,"BSTAR":0.00012338535,"MEAN_MOTION_DOT":1.676e-5,"MEAN_MOTION_DDOT":0},{"OBJECT_NAME":"STARLINK-3899","OBJECT_ID":"2022-049G","EPOCH":"2026-01-01T07:51:26.004384","MEAN_MOTION":15.08830637,"ECCENTRICITY":0.00013661,"INCLINATION":53.2196,"RA_OF_ASC_NODE":11.5141,"ARG_OF_PERICENTER":95.5864,"MEAN_ANOMALY":264.5284,"EPHEMERIS_TYPE":0,"CLASSIFICATION_TYPE":"U","NORAD_CAT_ID":52457,"ELEMENT_SET_NO":999,"REV_AT_EPOCH":20194,"BSTAR":2.2129962e-5,"MEAN_MOTION_DOT":6.4e-7,"MEAN_MOTION_DDOT":0},{"OBJECT_NAME":"STARLINK-3898","OBJECT_ID":"2022-049H","EPOCH":"2026-01-01T09:22:52.779360","MEAN_MOTION":15.08848691,"ECCENTRICITY":0.00014627,"INCLINATION":53.2188,"RA_OF_ASC_NODE":11.239,"ARG_OF_PERICENTER":98.9897,"MEAN_ANOMALY":261.1261,"EPHEMERIS_TYPE":0,"CLASSIFICATION_TYPE":"U","NORAD_CAT_ID":52458,"ELEMENT_SET_NO":999,"REV_AT_EPOCH":20195,"BSTAR":-4.4615371e-5,"MEAN_MOTION_DOT":-9.98e-6,"MEAN_MOTION_DDOT":0},{"OBJECT_NAME":"STARLINK-3856","OBJECT_ID":"2022-049J","EPOCH":"2026-01-01T09:01:38.715456","MEAN_MOTION":15.08839404,"ECCENTRICITY":0.00013236,"INCLINATION":53.2193,"RA_OF_ASC_NODE":1.3042,"ARG_OF_PERICENTER":83.8346,"MEAN_ANOMALY":276.2797,"EPHEMERIS_TYPE":0,"CLASSIFICATION_TYPE":"U","NORAD_CAT_ID":52459,"ELEMENT_SET_NO":999,"REV_AT_EPOCH":20208,"BSTAR":2.0133923e-5,"MEAN_MOTION_DOT":3.3e-7,"MEAN_MOTION_DDOT":0},{"OBJECT_NAME":"STARLINK-3900","OBJECT_ID":"2022-049L","EPOCH":"2026-01-01T05:46:53.217408","MEAN_MOTION":15.08847268,"ECCENTRICITY":0.00014427,"INCLINATION":53.2193,"RA_OF_ASC_NODE":351.9104,"ARG_OF_PERICENTER":87.325,"MEAN_ANOMALY":272.7908,"EPHEMERIS_TYPE":0,"CLASSIFICATION_TYPE":"U","NORAD_CAT_ID":52461,"ELEMENT_SET_NO":999,"REV_AT_EPOCH":20220,"BSTAR":7.3609946e-5,"MEAN_MOTION_DOT":8.84e-6,"MEAN_MOTION_DDOT":0},{"OBJECT_NAME":"STARLINK-3903","OBJECT_ID":"2022-049M","EPOCH":"2026-01-01T08:52:25.109184","MEAN_MOTION":15.08841569,"ECCENTRICITY":0.00014729,"INCLINATION":53.2192,"RA_OF_ASC_NODE":1.3431,"ARG_OF_PERICENTER":94.7065,"MEAN_ANOMALY":265.4095,"EPHEMERIS_TYPE":0,"CLASSIFICATION_TYPE":"U","NORAD_CAT_ID":52462,"ELEMENT_SET_NO":999,"REV_AT_EPOCH":20208,"BSTAR":6.6953004e-5,"MEAN_MOTION_DOT":7.78e-6,"MEAN_MOTION_DDOT":0},{"OBJECT_NAME":"STARLINK-3885","OBJECT_ID":"2022-049N","EPOCH":"2026-01-01T08:52:20.815968","MEAN_MOTION":15.08860855,"ECCENTRICITY":0.00015248,"INCLINATION":53.2197,"RA_OF_ASC_NODE":351.3319,"ARG_OF_PERICENTER":90.8533,"MEAN_ANOMALY":269.2634,"EPHEMERIS_TYPE":0,"CLASSIFICATION_TYPE":"U","NORAD_CAT_ID":52463,"ELEMENT_SET_NO":999,"REV_AT_EPOCH":20222,"BSTAR":-7.9817679e-5,"MEAN_MOTION_DOT":-1.559e-5,"MEAN_MOTION_DDOT":0},{"OBJECT_NAME":"STARLINK-3904","OBJECT_ID":"2022-049P","EPOCH":"2026-01-01T08:56:20.382432","MEAN_MOTION":15.08837623,"ECCENTRICITY":0.00012224,"INCLINATION":53.2187,"RA_OF_ASC_NODE":1.3192,"ARG_OF_PERICENTER":88.2853,"MEAN_ANOMALY":271.8279,"EPHEMERIS_TYPE":0,"CLASSIFICATION_TYPE":"U","NORAD_CAT_ID":52464,"ELEMENT_SET_NO":999,"REV_AT_EPOCH":20208,"BSTAR":6.0548578e-5,"MEAN_MOTION_DOT":6.76e-6,"MEAN_MOTION_DDOT":0},{"OBJECT_NAME":"STARLINK-3863","OBJECT_ID":"2022-049Q","EPOCH":"2026-01-01T08:47:03.270048","MEAN_MOTION":15.08849287,"ECCENTRICITY":0.00012545,"INCLINATION":53.2189,"RA_OF_ASC_NODE":351.3498,"ARG_OF_PERICENTER":102.8333,"MEAN_ANOMALY":257.2799,"EPHEMERIS_TYPE":0,"CLASSIFICATION_TYPE":"U","NORAD_CAT_ID":52465,"ELEMENT_SET_NO":999,"REV_AT_EPOCH":20222,"BSTAR":5.8416115e-5,"MEAN_MOTION_DOT":6.42e-6,"MEAN_MOTION_DDOT":0},{"OBJECT_NAME":"STARLINK-3873","OBJECT_ID":"2022-049S","EPOCH":"2026-01-01T05:34:57.929952","MEAN_MOTION":15.0884202,"ECCENTRICITY":0.00013182,"INCLINATION":53.2191,"RA_OF_ASC_NODE":1.948,"ARG_OF_PERICENTER":92.5653,"MEAN_ANOMALY":267.549,"EPHEMERIS_TYPE":0,"CLASSIFICATION_TYPE":"U","NORAD_CAT_ID":52467,"ELEMENT_SET_NO":999,"REV_AT_EPOCH":20206,"BSTAR":7.1895624e-5,"MEAN_MOTION_DOT":8.57e-6,"MEAN_MOTION_DDOT":0},{"OBJECT_NAME":"STARLINK-3864","OBJECT_ID":"2022-049T","EPOCH":"2026-01-01T09:59:58.088256","MEAN_MOTION":15.08810743,"ECCENTRICITY":0.00015318,"INCLINATION":53.2191,"RA_OF_ASC_NODE":1.1198,"ARG_OF_PERICENTER":108.6654,"MEAN_ANOMALY":251.4505,"EPHEMERIS_TYPE":0,"CLASSIFICATION_TYPE":"U","NORAD_CAT_ID":52468,"ELEMENT_SET_NO":999,"REV_AT_EPOCH":20209,"BSTAR":-0.00023327775,"MEAN_MOTION_DOT":-3.996e-5,"MEAN_MOTION_DDOT":0},{"OBJECT_NAME":"STARLINK-3828","OBJECT_ID":"2022-049U","EPOCH":"2026-01-01T05:24:22.545216","MEAN_MOTION":15.08833266,"ECCENTRICITY":0.00013166,"INCLINATION":53.2201,"RA_OF_ASC_NODE":1.9869,"ARG_OF_PERICENTER":93.3714,"MEAN_ANOMALY":266.7429,"EPHEMERIS_TYPE":0,"CLASSIFICATION_TYPE":"U","NORAD_CAT_ID":52469,"ELEMENT_SET_NO":999,"REV_AT_EPOCH":20206,"BSTAR":2.7044374e-5,"MEAN_MOTION_DOT":1.42e-6,"MEAN_MOTION_DDOT":0},{"OBJECT_NAME":"STARLINK-3859","OBJECT_ID":"2022-049V","EPOCH":"2026-01-01T06:38:33.542304","MEAN_MOTION":15.08841414,"ECCENTRICITY":0.00015263,"INCLINATION":53.2183,"RA_OF_ASC_NODE":1.7478,"ARG_OF_PERICENTER":93.6939,"MEAN_ANOMALY":266.4227,"EPHEMERIS_TYPE":0,"CLASSIFICATION_TYPE":"U","NORAD_CAT_ID":52470,"ELEMENT_SET_NO":999,"REV_AT_EPOCH":20207,"BSTAR":-9.5254639e-5,"MEAN_MOTION_DOT":-1.804e-5,"MEAN_MOTION_DDOT":0},{"OBJECT_NAME":"STARLINK-3862","OBJECT_ID":"2022-049W","EPOCH":"2026-01-01T06:55:50.309472","MEAN_MOTION":15.08834269,"ECCENTRICITY":0.00014087,"INCLINATION":53.219,"RA_OF_ASC_NODE":1.7074,"ARG_OF_PERICENTER":93.7231,"MEAN_ANOMALY":266.3922,"EPHEMERIS_TYPE":0,"CLASSIFICATION_TYPE":"U","NORAD_CAT_ID":52471,"ELEMENT_SET_NO":999,"REV_AT_EPOCH":20207,"BSTAR":3.4940022e-5,"MEAN_MOTION_DOT":2.68e-6,"MEAN_MOTION_DDOT":0},{"OBJECT_NAME":"STARLINK-3881","OBJECT_ID":"2022-049X","EPOCH":"2026-01-01T06:33:15.563520","MEAN_MOTION":15.08839077,"ECCENTRICITY":0.00014629,"INCLINATION":53.2167,"RA_OF_ASC_NODE":1.7645,"ARG_OF_PERICENTER":93.1789,"MEAN_ANOMALY":266.937,"EPHEMERIS_TYPE":0,"CLASSIFICATION_TYPE":"U","NORAD_CAT_ID":52472,"ELEMENT_SET_NO":999,"REV_AT_EPOCH":20207,"BSTAR":1.4831387e-5,"MEAN_MOTION_DOT":-5.2e-7,"MEAN_MOTION_DDOT":0},{"OBJECT_NAME":"STARLINK-3879","OBJECT_ID":"2022-049Y","EPOCH":"2026-01-01T06:43:51.425184","MEAN_MOTION":15.0883937,"ECCENTRICITY":0.00015521,"INCLINATION":53.2185,"RA_OF_ASC_NODE":1.7312,"ARG_OF_PERICENTER":97.7127,"MEAN_ANOMALY":262.4042,"EPHEMERIS_TYPE":0,"CLASSIFICATION_TYPE":"U","NORAD_CAT_ID":52473,"ELEMENT_SET_NO":999,"REV_AT_EPOCH":20207,"BSTAR":3.9242091e-5,"MEAN_MOTION_DOT":3.37e-6,"MEAN_MOTION_DDOT":0},{"OBJECT_NAME":"STARLINK-3855","OBJECT_ID":"2022-049Z","EPOCH":"2026-01-01T08:37:50.561472","MEAN_MOTION":15.08842725,"ECCENTRICITY":0.00014262,"INCLINATION":53.2196,"RA_OF_ASC_NODE":351.3871,"ARG_OF_PERICENTER":84.0176,"MEAN_ANOMALY":276.0979,"EPHEMERIS_TYPE":0,"CLASSIFICATION_TYPE":"U","NORAD_CAT_ID":52474,"ELEMENT_SET_NO":999,"REV_AT_EPOCH":20222,"BSTAR":0.00011696952,"MEAN_MOTION_DOT":1.574e-5,"MEAN_MOTION_DDOT":0},{"OBJECT_NAME":"STARLINK-3882","OBJECT_ID":"2022-049AA","EPOCH":"2026-01-01T05:29:42.218304","MEAN_MOTION":15.08839703,"ECCENTRICITY":0.0001363,"INCLINATION":53.2187,"RA_OF_ASC_NODE":2.1869,"ARG_OF_PERICENTER":99.7377,"MEAN_ANOMALY":260.3769,"EPHEMERIS_TYPE":0,"CLASSIFICATION_TYPE":"U","NORAD_CAT_ID":52475,"ELEMENT_SET_NO":999,"REV_AT_EPOCH":20206,"BSTAR":3.0155098e-5,"MEAN_MOTION_DOT":1.92e-6,"MEAN_MOTION_DDOT":0},{"OBJECT_NAME":"STARLINK-3835","OBJECT_ID":"2022-049AB","EPOCH":"2026-01-01T05:53:37.171104","MEAN_MOTION":15.08859274,"ECCENTRICITY":0.00015357,"INCLINATION":53.2171,"RA_OF_ASC_NODE":352.1308,"ARG_OF_PERICENTER":89.4523,"MEAN_ANOMALY":270.6645,"EPHEMERIS_TYPE":0,"CLASSIFICATION_TYPE":"U","NORAD_CAT_ID":52476,"ELEMENT_SET_NO":999,"REV_AT_EPOCH":20344,"BSTAR":0.00068400322,"MEAN_MOTION_DOT":0.0001062,"MEAN_MOTION_DDOT":0},{"OBJECT_NAME":"STARLINK-3860","OBJECT_ID":"2022-049AC","EPOCH":"2026-01-01T08:41:45.928032","MEAN_MOTION":15.08841092,"ECCENTRICITY":0.00014888,"INCLINATION":53.2191,"RA_OF_ASC_NODE":351.364,"ARG_OF_PERICENTER":80.6182,"MEAN_ANOMALY":279.4978,"EPHEMERIS_TYPE":0,"CLASSIFICATION_TYPE":"U","NORAD_CAT_ID":52477,"ELEMENT_SET_NO":999,"REV_AT_EPOCH":20346,"BSTAR":6.1788337e-5,"MEAN_MOTION_DOT":6.96e-6,"MEAN_MOTION_DDOT":0},{"OBJECT_NAME":"STARLINK-3825","OBJECT_ID":"2022-049AD","EPOCH":"2026-01-01T06:22:39.521280","MEAN_MOTION":15.08846494,"ECCENTRICITY":0.00018021,"INCLINATION":53.2193,"RA_OF_ASC_NODE":1.7975,"ARG_OF_PERICENTER":124.2968,"MEAN_ANOMALY":235.8195,"EPHEMERIS_TYPE":0,"CLASSIFICATION_TYPE":"U","NORAD_CAT_ID":52478,"ELEMENT_SET_NO":999,"REV_AT_EPOCH":20331,"BSTAR":0.00011110366,"MEAN_MOTION_DOT":1.481e-5,"MEAN_MOTION_DDOT":0},{"OBJECT_NAME":"STARLINK-3878","OBJECT_ID":"2022-049AE","EPOCH":"2026-01-01T06:45:10.695456","MEAN_MOTION":15.0885212,"ECCENTRICITY":0.00022127,"INCLINATION":53.2188,"RA_OF_ASC_NODE":351.7265,"ARG_OF_PERICENTER":113.8149,"MEAN_ANOMALY":246.3075,"EPHEMERIS_TYPE":0,"CLASSIFICATION_TYPE":"U","NORAD_CAT_ID":52479,"ELEMENT_SET_NO":999,"REV_AT_EPOCH":20345,"BSTAR":-0.00017750695,"MEAN_MOTION_DOT":-3.113e-5,"MEAN_MOTION_DDOT":0}]
